NORAD_CAT_ID,OBJECT_NAME,OBJECT_TYPE,EPOCH,MEAN_MOTION,ECCENTRICITY,INCLINATION,RA_OF_ASC_NODE,ARG_OF_PERICENTER,MEAN_ANOMALY,BSTAR,MEAN_MOTION_DOT,MEAN_MOTION_DDOT,TLE_LINE0,TLE_LINE1,TLE_LINE2,SEMIMAJOR_AXIS,PERIOD,APOGEE,PERIGEE,DECAYED
53170.0,STARLINK-4095,PAYLOAD,2024-07-16 14:09:11,15.08842146,0.0001348,53.2175,337.5185,81.9153,278.1992,0.00019008,2.739e-05,0.0,0 STARLINK-4095,1 53170U 22083AQ  24198.58971396  .00002739  00000-0  19008-3 0  9995,2 53170  53.2175 337.5185 0001348  81.9153 278.1992 15.08842146110689,6917.874,95.437,540.671,538.806,0.0
53170.0,STARLINK-4095,PAYLOAD,2024-07-16 15:44:34,15.08844888,0.0001515,53.2174,337.2229,78.2112,281.905,0.00024102,3.55e-05,0.0,0 STARLINK-4095,1 53170U 22083AQ  24198.65595339  .00003550  00000-0  24102-3 0  9995,2 53170  53.2174 337.2229 0001515  78.2112 281.9050 15.08844888111328,6917.865,95.437,540.779,538.682,0.0
53170.0,STARLINK-4095,PAYLOAD,2024-07-17 12:24:35,15.08840499,0.0001548,53.2157,333.3538,110.5265,249.5893,0.00016074,2.271e-05,0.0,0 STARLINK-4095,1 53170U 22083AQ  24199.51707572  .00002271  00000-0  16074-3 0  9993,2 53170  53.2157 333.3538 0001548 110.5265 249.5893 15.08840499111457,6917.879,95.438,540.815,538.673,0.0
53170.0,STARLINK-4095,PAYLOAD,2024-07-17 13:59:58,15.08840181,0.0001543,53.2163,333.0559,120.468,239.6465,0.00013153,1.806e-05,0.0,0 STARLINK-4095,1 53170U 22083AQ  24199.58331478  .00001806  00000-0  13153-3 0  9996,2 53170  53.2163 333.0559 0001543 120.4680 239.6465 15.08840181110834,6917.88,95.438,540.812,538.677,0.0
53170.0,STARLINK-4095,PAYLOAD,2024-07-17 15:35:21,15.08839329,0.0001304,53.2173,332.7617,101.7878,258.3261,0.00012758,1.743e-05,0.0,0 STARLINK-4095,1 53170U 22083AQ  24199.64955623  .00001743  00000-0  12758-3 0  9997,2 53170  53.2173 332.7617 0001304 101.7878 258.3261 15.08839329110847,6917.882,95.438,540.65,538.845,0.0
53170.0,STARLINK-4095,PAYLOAD,2024-07-18 13:50:45,15.08846386,0.0001254,53.2173,328.5977,99.8262,260.2872,0.00020972,3.052e-05,0.0,0 STARLINK-4095,1 53170U 22083AQ  24200.57691547  .00003052  00000-0  20972-3 0  9996,2 53170  53.2173 328.5977 0001254  99.8262 260.2872 15.08846386110983,6917.861,95.437,540.593,538.858,0.0
53170.0,STARLINK-4095,PAYLOAD,2024-07-18 15:26:08,15.08849881,0.0001448,53.2182,328.3003,105.6387,254.4765,0.00024201,3.567e-05,0.0,0 STARLINK-4095,1 53170U 22083AQ  24200.64315362  .00003567  00000-0  24201-3 0  9992,2 53170  53.2182 328.3003 0001448 105.6387 254.4765 15.08849881111621,6917.85,95.437,540.717,538.713,0.0
53170.0,STARLINK-4095,PAYLOAD,2024-07-19 12:06:09,15.08844339,0.0001427,53.2171,324.4336,110.521,249.5935,0.00020827,3.029e-05,0.0,0 STARLINK-4095,1 53170U 22083AQ  24201.50427533  .00003029  00000-0  20827-3 0  9995,2 53170  53.2171 324.4336 0001427 110.5210 249.5935 15.08844339111753,6917.867,95.437,540.719,538.745,0.0
53170.0,STARLINK-4095,PAYLOAD,2024-07-19 15:16:55,15.08855032,0.0001284,53.2175,323.8421,99.9023,260.2114,0.00038162,5.793e-05,0.0,0 STARLINK-4095,1 53170U 22083AQ  24201.63675203  .00005793  00000-0  38162-3 0  9999,2 53170  53.2175 323.8421 0001284  99.9023 260.2114 15.08855032111142,6917.834,95.437,540.588,538.811,0.0
53170.0,STARLINK-4095,PAYLOAD,2024-07-20 11:56:56,15.08835747,0.0001352,53.2184,319.9764,88.9595,271.1552,-0.00011177,-2.066e-05,0.0,0 STARLINK-4095,1 53170U 22083AQ  24202.49787562 -.00002066  00000-0 -11177-3 0  9995,2 53170  53.2184 319.9764 0001352  88.9595 271.1552 15.08835747111908,6917.893,95.438,540.694,538.823,0.0
53170.0,STARLINK-4095,PAYLOAD,2024-07-20 15:07:42,15.08840567,0.0001439,53.2186,319.3848,101.5716,258.5438,1.3604e-05,-7.1e-07,0.0,0 STARLINK-4095,1 53170U 22083AQ  24202.63035479 -.00000071  00000-0  13604-4 0  9995,2 53170  53.2186 319.3848 0001439 101.5716 258.5438 15.08840567111290,6917.879,95.438,540.739,538.748,0.0
53170.0,STARLINK-4095,PAYLOAD,2024-07-21 13:23:07,15.08834011,0.0001495,53.2182,315.2195,90.9896,269.1268,-0.00011463,-2.112e-05,0.0,0 STARLINK-4095,1 53170U 22083AQ  24203.55772256 -.00002112  00000-0 -11463-3 0  9997,2 53170  53.2182 315.2195 0001495  90.9896 269.1268 15.08834011112060,6917.899,95.438,540.798,538.729,0.0
53170.0,STARLINK-4095,PAYLOAD,2024-07-22 16:24:40,15.08849763,0.0001742,53.2191,310.1642,92.5388,267.5804,0.00028979,4.328e-05,0.0,0 STARLINK-4095,1 53170U 22083AQ  24204.68379778  .00004328  00000-0  28979-3 0  9993,2 53170  53.2191 310.1642 0001742  92.5388 267.5804 15.08849763112237,6917.851,95.437,540.921,538.51,0.0
53170.0,STARLINK-4095,PAYLOAD,2024-07-23 13:04:42,15.08825155,0.0001525,53.2179,306.2929,119.6472,240.4673,0.00079374,0.00012362,0.0,0 STARLINK-4095,1 53170U 22083AQ  24205.54493208  .00012362  00000-0  79374-3 0  9996,2 53170  53.2179 306.2929 0001525 119.6472 240.4673 15.08825155112368,6917.926,95.438,540.846,538.736,0.0
53170.0,STARLINK-4095,PAYLOAD,2024-07-24 09:44:42,15.0883518,0.0001379,53.2174,302.4351,89.2857,270.8294,1.6883e-05,-1.9e-07,0.0,0 STARLINK-4095,1 53170U 22083AQ  24206.40604588 -.00000019  00000-0  16883-4 0  9991,2 53170  53.2174 302.4351 0001379  89.2857 270.8294 15.08835180111865,6917.895,95.438,540.714,538.806,0.0
53170.0,STARLINK-4095,PAYLOAD,2024-07-25 09:35:28,15.08868034,0.0001066,53.2164,297.9722,80.6718,279.4395,0.00049434,7.594e-05,0.0,0 STARLINK-4095,1 53170U 22083AQ  24207.39963061  .00007594  00000-0  49434-3 0  9995,2 53170  53.2164 297.9722 0001066  80.6718 279.4395 15.08868034112646,6917.795,95.436,540.397,538.922,0.0
53170.0,STARLINK-4095,PAYLOAD,2024-07-25 15:57:00,15.08852439,0.0001486,53.2173,296.7821,86.5856,273.5306,0.00017418,2.486e-05,0.0,0 STARLINK-4095,1 53170U 22083AQ  24207.66459408  .00002486  00000-0  17418-3 0  9992,2 53170  53.2173 296.7821 0001486  86.5856 273.5306 15.08852439112680,6917.842,95.437,540.735,538.679,0.0
53170.0,STARLINK-4095,PAYLOAD,2024-07-26 09:26:15,15.08843455,0.0002006,53.2143,293.5022,125.6316,234.4864,0.00011229,1.5e-05,0.0,0 STARLINK-4095,1 53170U 22083AQ  24208.39323735  .00001500  00000-0  11229-3 0  9996,2 53170  53.2143 293.5022 0002006 125.6316 234.4864 15.08843455112795,6917.87,95.437,541.123,538.347,0.0
53170.0,STARLINK-4095,PAYLOAD,2024-07-26 14:12:25,15.08843163,0.0001541,53.2152,292.613,110.3443,249.7715,0.00012454,1.695e-05,0.0,0 STARLINK-4095,1 53170U 22083AQ  24208.59195838  .00001695  00000-0  12454-3 0  9995,2 53170  53.2152 292.6130 0001541 110.3443 249.7715 15.08843163112194,6917.871,95.437,540.802,538.67,0.0
53170.0,STARLINK-4095,PAYLOAD,2024-07-27 09:17:03,15.08840027,0.0001474,53.2165,289.0466,92.8082,267.3078,-1.2956e-05,-4.94e-06,0.0,0 STARLINK-4095,1 53170U 22083AQ  24209.38684476 -.00000494  00000-0 -12956-4 0  9990,2 53170  53.2165 289.0466 0001474  92.8082 267.3078 15.08840027112945,6917.88,95.438,540.765,538.726,0.0
53170.0,STARLINK-4095,PAYLOAD,2024-07-27 14:03:12,15.08842422,0.0001433,53.2161,288.1552,92.3279,267.7877,-9.6901e-06,-4.42e-06,0.0,0 STARLINK-4095,1 53170U 22083AQ  24209.58556303 -.00000442  00000-0 -96901-5 0  9995,2 53170  53.2161 288.1552 0001433  92.3279 267.7877 15.08842422112341,6917.873,95.437,540.729,538.747,0.0
53170.0,STARLINK-4095,PAYLOAD,2024-07-28 12:18:36,15.08843646,0.000129,53.2159,283.9947,93.733,266.3809,9.7936e-05,1.271e-05,0.0,0 STARLINK-4095,1 53170U 22083AQ  24210.51292128  .00001271  00000-0  97936-4 0  9999,2 53170  53.2159 283.9947 0001290  93.7330 266.3809 15.08843646113118,6917.869,95.437,540.627,538.842,0.0
53170.0,STARLINK-4095,PAYLOAD,2024-07-28 21:50:55,15.08841303,0.000138,53.215,282.21,87.662,272.4531,0.00013567,1.872e-05,0.0,0 STARLINK-4095,1 53170U 22083AQ  24210.91036279  .00001872  00000-0  13567-3 0  9990,2 53170  53.2150 282.2100 0001380  87.6620 272.4531 15.08841303112540,6917.876,95.437,540.696,538.787,0.0
53170.0,STARLINK-4095,PAYLOAD,2024-07-29 10:34:01,15.08839701,0.0001381,53.216,279.8325,70.4274,289.6867,-1.0227e-05,-4.51e-06,0.0,0 STARLINK-4095,1 53170U 22083AQ  24211.44029015 -.00000451  00000-0 -10227-4 0  9994,2 53170  53.2160 279.8325 0001381  70.4274 289.6867 15.08839701113258,6917.881,95.438,540.702,538.791,0.0
53170.0,STARLINK-4095,PAYLOAD,2024-07-29 21:41:42,15.08836566,0.0001368,53.2161,277.7508,70.676,289.438,0.00011679,1.571e-05,0.0,0 STARLINK-4095,1 53170U 22083AQ  24211.90396931  .00001571  00000-0  11679-3 0  9992,2 53170  53.2161 277.7508 0001368  70.6760 289.4380 15.08836566112697,6917.891,95.438,540.702,538.81,0.0
53170.0,STARLINK-4095,PAYLOAD,2024-07-30 10:24:47,15.08841048,0.0001404,53.2153,275.3714,78.5061,281.6088,5.9207e-05,6.54e-06,0.0,0 STARLINK-4095,1 53170U 22083AQ  24212.43388880  .00000654  00000-0  59207-4 0  9996,2 53170  53.2153 275.3714 0001404  78.5061 281.6088 15.08841048112772,6917.877,95.437,540.713,538.771,0.0
53170.0,STARLINK-4095,PAYLOAD,2024-07-30 21:32:29,15.08843705,0.0001396,53.2154,273.2905,84.7355,275.3797,5.8105e-05,6.37e-06,0.0,0 STARLINK-4095,1 53170U 22083AQ  24212.89756715  .00000637  00000-0  58105-4 0  9999,2 53170  53.2154 273.2905 0001396  84.7355 275.3797 15.08843705112844,6917.869,95.437,540.7,538.768,0.0
53170.0,STARLINK-4095,PAYLOAD,2024-07-31 10:15:35,15.08838982,0.0001501,53.216,270.9082,87.8288,272.2876,0.00011094,1.478e-05,0.0,0 STARLINK-4095,1 53170U 22083AQ  24213.42748996  .00001478  00000-0  11094-3 0  9990,2 53170  53.2160 270.9082 0001501  87.8288 272.2876 15.08838982112922,6917.884,95.438,540.787,538.71,0.0
53170.0,STARLINK-4095,PAYLOAD,2024-07-31 21:23:16,15.08841504,0.0001446,53.2164,268.8249,93.9042,266.2116,0.00010145,1.327e-05,0.0,0 STARLINK-4095,1 53170U 22083AQ  24213.89116831  .00001327  00000-0  10145-3 0  9997,2 53170  53.2164 268.8249 0001446  93.9042 266.2116 15.08841504112992,6917.876,95.437,540.741,538.74,0.0
53170.0,STARLINK-4095,PAYLOAD,2024-08-01 10:06:21,15.08844753,0.0001422,53.2162,266.4455,96.2801,263.8353,0.00023415,3.441e-05,0.0,0 STARLINK-4095,1 53170U 22083AQ  24214.42108299  .00003441  00000-0  23415-3 0  9999,2 53170  53.2162 266.4455 0001422  96.2801 263.8353 15.08844753113701,6917.866,95.437,540.715,538.747,0.0
